STARLINK-36746          
1 67733U 26026N   26071.11029338  .00053146  00000+0  97137-3 0  9993
2 67733  97.2858 125.4776 0001027  95.6615 264.4754 15.49215454  4489
STARLINK-36749          
1 67734U 26026P   26071.25001157 -.01962203  00000+0 -44823-1 0  9996
2 67734  97.2851 125.7799 0001677  63.5254  12.9753 15.46120207  5726
STARLINK-36691          
1 67735U 26026Q   26071.25001157 -.01886319  00000+0 -54821-1 0  9999
2 67735  97.2850 125.8578 0001948  79.8768 166.0790 15.38829756  5866
STARLINK-36317          
1 67736U 26026R   26071.25001157 -.01872946  00000+0 -54217-1 0  9990
2 67736  97.2838 125.8513 0001982  75.6333 154.8599 15.38925828  5726
STARLINK-36330          
1 67737U 26026S   26071.25001157 -.01908247  00000+0 -54694-1 0  9994
2 67737  97.2853 125.8643 0001944  80.5566 178.2238 15.39291424  5728
STARLINK-36327          
1 67738U 26026T   26071.25001157 -.01870355  00000+0 -53626-1 0  9997
2 67738  97.2838 125.8707 0001852  76.9872 197.1122 15.39213362  5727
STARLINK-36329          
1 67739U 26026U   26071.25001157 -.01864018  00000+0 -51640-1 0  9991
2 67739  97.2844 125.9064 0001441  82.6762 275.8650 15.40245400  5728
STARLINK-36737          
1 67740U 26026V   26071.25001157 -.01895702  00000+0 -54147-1 0  9992
2 67740  97.2838 125.8770 0001775  81.8637 206.4643 15.39375400  5722
STARLINK-36740          
1 67741U 26026W   26071.14190648 -.00283940  00000+0 -55632-2 0  9990
2 67741  97.2859 125.7411 0001712  74.7246 285.4194 15.48384860  4508
STARLINK-36693          
1 67742U 26026X   26071.25001157 -.01891838  00000+0 -43304-1 0  9993
2 67742  97.2852 125.8498 0001853  76.2489 158.3498 15.45939261  5863
STARLINK-36717          
1 67743U 26026Y   26071.25001157 -.01921424  00000+0 -50898-1 0  9995
2 67743  97.2848 125.8734 0001773  84.3284 203.2170 15.41690754  5860
STARLINK-36692          
1 67744U 26026Z   26071.25001157 -.01905258  00000+0 -47145-1 0  9994
2 67744  97.2852 125.8603 0001881  84.6079 173.2036 15.43683398  5726
