CCSDS_OMM_VERS = 2.0
CREATION_DATE  = 
ORIGINATOR     = 

OBJECT_NAME    = STARLINK-36746
OBJECT_ID      = 2026-026N
CENTER_NAME    = EARTH
REF_FRAME      = TEME
TIME_SYSTEM    = UTC
MEAN_ELEMENT_THEORY = SGP/SGP4

EPOCH          = 2026-03-12T02:38:49.348032
MEAN_MOTION    = 15.49215454
ECCENTRICITY   = .00010272
INCLINATION    = 97.2858
RA_OF_ASC_NODE = 125.4776
ARG_OF_PERICENTER = 95.6615
MEAN_ANOMALY   = 264.4754

EPHEMERIS_TYPE = 0
CLASSIFICATION_TYPE = U
NORAD_CAT_ID   = 67733
ELEMENT_SET_NO = 999
REV_AT_EPOCH   = 448
BSTAR          = .97136924E-3
MEAN_MOTION_DOT = .53146E-3
MEAN_MOTION_DDOT = 0

CCSDS_OMM_VERS = 2.0
CREATION_DATE  = 
ORIGINATOR     = 

OBJECT_NAME    = STARLINK-36749
OBJECT_ID      = 2026-026P
CENTER_NAME    = EARTH
REF_FRAME      = TEME
TIME_SYSTEM    = UTC
MEAN_ELEMENT_THEORY = SGP/SGP4

EPOCH          = 2026-03-12T06:00:00.999648
MEAN_MOTION    = 15.46120207
ECCENTRICITY   = .00016774
INCLINATION    = 97.2851
RA_OF_ASC_NODE = 125.7799
ARG_OF_PERICENTER = 63.5254
MEAN_ANOMALY   = 12.9753

EPHEMERIS_TYPE = 0
CLASSIFICATION_TYPE = U
NORAD_CAT_ID   = 67734
ELEMENT_SET_NO = 999
REV_AT_EPOCH   = 572
BSTAR          = -.4482312E-1
MEAN_MOTION_DOT = -.1962203E-1
MEAN_MOTION_DDOT = 0

CCSDS_OMM_VERS = 2.0
CREATION_DATE  = 
ORIGINATOR     = 

OBJECT_NAME    = STARLINK-36691
OBJECT_ID      = 2026-026Q
CENTER_NAME    = EARTH
REF_FRAME      = TEME
TIME_SYSTEM    = UTC
MEAN_ELEMENT_THEORY = SGP/SGP4

EPOCH          = 2026-03-12T06:00:00.999648
MEAN_MOTION    = 15.38829756
ECCENTRICITY   = .00019484
INCLINATION    = 97.2850
RA_OF_ASC_NODE = 125.8578
ARG_OF_PERICENTER = 79.8768
MEAN_ANOMALY   = 166.0790

EPHEMERIS_TYPE = 0
CLASSIFICATION_TYPE = U
NORAD_CAT_ID   = 67735
ELEMENT_SET_NO = 999
REV_AT_EPOCH   = 586
BSTAR          = -.54820921E-1
MEAN_MOTION_DOT = -.1886319E-1
MEAN_MOTION_DDOT = 0

CCSDS_OMM_VERS = 2.0
CREATION_DATE  = 
ORIGINATOR     = 

OBJECT_NAME    = STARLINK-36317
OBJECT_ID      = 2026-026R
CENTER_NAME    = EARTH
REF_FRAME      = TEME
TIME_SYSTEM    = UTC
MEAN_ELEMENT_THEORY = SGP/SGP4

EPOCH          = 2026-03-12T06:00:00.999648
MEAN_MOTION    = 15.38925828
ECCENTRICITY   = .00019826
INCLINATION    = 97.2838
RA_OF_ASC_NODE = 125.8513
ARG_OF_PERICENTER = 75.6333
MEAN_ANOMALY   = 154.8599

EPHEMERIS_TYPE = 0
CLASSIFICATION_TYPE = U
NORAD_CAT_ID   = 67736
ELEMENT_SET_NO = 999
REV_AT_EPOCH   = 572
BSTAR          = -.54216941E-1
MEAN_MOTION_DOT = -.1872946E-1
MEAN_MOTION_DDOT = 0

CCSDS_OMM_VERS = 2.0
CREATION_DATE  = 
ORIGINATOR     = 

OBJECT_NAME    = STARLINK-36330
OBJECT_ID      = 2026-026S
CENTER_NAME    = EARTH
REF_FRAME      = TEME
TIME_SYSTEM    = UTC
MEAN_ELEMENT_THEORY = SGP/SGP4

EPOCH          = 2026-03-12T06:00:00.999648
MEAN_MOTION    = 15.39291424
ECCENTRICITY   = .00019445
INCLINATION    = 97.2853
RA_OF_ASC_NODE = 125.8643
ARG_OF_PERICENTER = 80.5566
MEAN_ANOMALY   = 178.2238

EPHEMERIS_TYPE = 0
CLASSIFICATION_TYPE = U
NORAD_CAT_ID   = 67737
ELEMENT_SET_NO = 999
REV_AT_EPOCH   = 572
BSTAR          = -.54694437E-1
MEAN_MOTION_DOT = -.1908247E-1
MEAN_MOTION_DDOT = 0

CCSDS_OMM_VERS = 2.0
CREATION_DATE  = 
ORIGINATOR     = 

OBJECT_NAME    = STARLINK-36327
OBJECT_ID      = 2026-026T
CENTER_NAME    = EARTH
REF_FRAME      = TEME
TIME_SYSTEM    = UTC
MEAN_ELEMENT_THEORY = SGP/SGP4

EPOCH          = 2026-03-12T06:00:00.999648
MEAN_MOTION    = 15.39213362
ECCENTRICITY   = .0001852
INCLINATION    = 97.2838
RA_OF_ASC_NODE = 125.8707
ARG_OF_PERICENTER = 76.9872
MEAN_ANOMALY   = 197.1122

EPHEMERIS_TYPE = 0
CLASSIFICATION_TYPE = U
NORAD_CAT_ID   = 67738
ELEMENT_SET_NO = 999
REV_AT_EPOCH   = 572
BSTAR          = -.53626271E-1
MEAN_MOTION_DOT = -.1870355E-1
MEAN_MOTION_DDOT = 0

CCSDS_OMM_VERS = 2.0
CREATION_DATE  = 
ORIGINATOR     = 

OBJECT_NAME    = STARLINK-36329
OBJECT_ID      = 2026-026U
CENTER_NAME    = EARTH
REF_FRAME      = TEME
TIME_SYSTEM    = UTC
MEAN_ELEMENT_THEORY = SGP/SGP4

EPOCH          = 2026-03-12T06:00:00.999648
MEAN_MOTION    = 15.40245400
ECCENTRICITY   = .00014411
INCLINATION    = 97.2844
RA_OF_ASC_NODE = 125.9064
ARG_OF_PERICENTER = 82.6762
MEAN_ANOMALY   = 275.8650

EPHEMERIS_TYPE = 0
CLASSIFICATION_TYPE = U
NORAD_CAT_ID   = 67739
ELEMENT_SET_NO = 999
REV_AT_EPOCH   = 572
BSTAR          = -.5164044E-1
MEAN_MOTION_DOT = -.1864018E-1
MEAN_MOTION_DDOT = 0

CCSDS_OMM_VERS = 2.0
CREATION_DATE  = 
ORIGINATOR     = 

OBJECT_NAME    = STARLINK-36737
OBJECT_ID      = 2026-026V
CENTER_NAME    = EARTH
REF_FRAME      = TEME
TIME_SYSTEM    = UTC
MEAN_ELEMENT_THEORY = SGP/SGP4

EPOCH          = 2026-03-12T06:00:00.999648
MEAN_MOTION    = 15.39375400
ECCENTRICITY   = .0001775
INCLINATION    = 97.2838
RA_OF_ASC_NODE = 125.8770
ARG_OF_PERICENTER = 81.8637
MEAN_ANOMALY   = 206.4643

EPHEMERIS_TYPE = 0
CLASSIFICATION_TYPE = U
NORAD_CAT_ID   = 67740
ELEMENT_SET_NO = 999
REV_AT_EPOCH   = 572
BSTAR          = -.54146883E-1
MEAN_MOTION_DOT = -.1895702E-1
MEAN_MOTION_DDOT = 0

CCSDS_OMM_VERS = 2.0
CREATION_DATE  = 
ORIGINATOR     = 

OBJECT_NAME    = STARLINK-36740
OBJECT_ID      = 2026-026W
CENTER_NAME    = EARTH
REF_FRAME      = TEME
TIME_SYSTEM    = UTC
MEAN_ELEMENT_THEORY = SGP/SGP4

EPOCH          = 2026-03-12T03:24:20.719872
MEAN_MOTION    = 15.48384860
ECCENTRICITY   = .0001712
INCLINATION    = 97.2859
RA_OF_ASC_NODE = 125.7411
ARG_OF_PERICENTER = 74.7246
MEAN_ANOMALY   = 285.4194

EPHEMERIS_TYPE = 0
CLASSIFICATION_TYPE = U
NORAD_CAT_ID   = 67741
ELEMENT_SET_NO = 999
REV_AT_EPOCH   = 450
BSTAR          = -.55631898E-2
MEAN_MOTION_DOT = -.28394E-2
MEAN_MOTION_DDOT = 0

CCSDS_OMM_VERS = 2.0
CREATION_DATE  = 
ORIGINATOR     = 

OBJECT_NAME    = STARLINK-36693
OBJECT_ID      = 2026-026X
CENTER_NAME    = EARTH
REF_FRAME      = TEME
TIME_SYSTEM    = UTC
MEAN_ELEMENT_THEORY = SGP/SGP4

EPOCH          = 2026-03-12T06:00:00.999648
MEAN_MOTION    = 15.45939261
ECCENTRICITY   = .00018532
INCLINATION    = 97.2852
RA_OF_ASC_NODE = 125.8498
ARG_OF_PERICENTER = 76.2489
MEAN_ANOMALY   = 158.3498

EPHEMERIS_TYPE = 0
CLASSIFICATION_TYPE = U
NORAD_CAT_ID   = 67742
ELEMENT_SET_NO = 999
REV_AT_EPOCH   = 586
BSTAR          = -.4330448E-1
MEAN_MOTION_DOT = -.1891838E-1
MEAN_MOTION_DDOT = 0

CCSDS_OMM_VERS = 2.0
CREATION_DATE  = 
ORIGINATOR     = 

OBJECT_NAME    = STARLINK-36717
OBJECT_ID      = 2026-026Y
CENTER_NAME    = EARTH
REF_FRAME      = TEME
TIME_SYSTEM    = UTC
MEAN_ELEMENT_THEORY = SGP/SGP4

EPOCH          = 2026-03-12T06:00:00.999648
MEAN_MOTION    = 15.41690754
ECCENTRICITY   = .00017737
INCLINATION    = 97.2848
RA_OF_ASC_NODE = 125.8734
ARG_OF_PERICENTER = 84.3284
MEAN_ANOMALY   = 203.2170

EPHEMERIS_TYPE = 0
CLASSIFICATION_TYPE = U
NORAD_CAT_ID   = 67743
ELEMENT_SET_NO = 999
REV_AT_EPOCH   = 586
BSTAR          = -.50897947E-1
MEAN_MOTION_DOT = -.1921424E-1
MEAN_MOTION_DDOT = 0

CCSDS_OMM_VERS = 2.0
CREATION_DATE  = 
ORIGINATOR     = 

OBJECT_NAME    = STARLINK-36692
OBJECT_ID      = 2026-026Z
CENTER_NAME    = EARTH
REF_FRAME      = TEME
TIME_SYSTEM    = UTC
MEAN_ELEMENT_THEORY = SGP/SGP4

EPOCH          = 2026-03-12T06:00:00.999648
MEAN_MOTION    = 15.43683398
ECCENTRICITY   = .00018812
INCLINATION    = 97.2852
RA_OF_ASC_NODE = 125.8603
ARG_OF_PERICENTER = 84.6079
MEAN_ANOMALY   = 173.2036

EPHEMERIS_TYPE = 0
CLASSIFICATION_TYPE = U
NORAD_CAT_ID   = 67744
ELEMENT_SET_NO = 999
REV_AT_EPOCH   = 572
BSTAR          = -.47145387E-1
MEAN_MOTION_DOT = -.1905258E-1
MEAN_MOTION_DDOT = 0

